1 38691U 68081R   16110.35657955 -.00000228  00000-0  00000+0 0  9996
2 38691   6.2510 316.7929 0195036 290.3941  67.3244  1.00703539 47760
1 38692U 68081S   16103.90479627 -.00000405  00000-0  00000+0 0  9995
2 38692   7.4655 321.2554 0329594 296.6198  59.8994  0.99203009 30416
1 38693U 68081T   16107.75934600 -.00000078  00000-0  00000+0 0  9996
2 38693   5.3038 310.6193 0106238 250.7167 107.9118  1.02821661 31436
1 38694U 68081U   16081.95131988 -.00000063  00000-0  00000+0 0  9992
2 38694   6.4747 310.7709 0095504 120.2210 240.5935  1.03508627 31293
1 38695U 68081V   16106.64062391 -.00000448  00000-0  00000+0 0  9995
2 38695   7.0761 320.5858 0454311 281.4628 317.0400  0.99346440 26444
1 38696U 68081W   16104.27462918 -.00000093  00000-0  00000+0 0  9998
2 38696   7.0086 320.2085 0210347 284.5624  72.9607  0.99497342 30015
1 38697U 68081X   16105.37044623 -.00000018  00000-0  00000+0 0  9997
2 38697   5.0119 329.5322 0802275  73.1935 294.5542  1.01478096 37174
1 38698U 68081Y   16109.29219719 -.00000120  00000-0  00000+0 0  9997
2 38698   4.7329 305.5491 0154259 263.1861  94.7912  1.04393512 47068
1 38700U 68081AA  16107.83315877 -.00000382  00000-0  00000+0 0  9991
2 38700   6.0732 311.9650 0110908 254.5054  22.6523  1.02730841 26551
1 38701U 68081AB  16084.69148819 -.00000174  00000-0  00000+0 0  9999
2 38701   6.0589 315.0034 0394878 316.1645  40.6297  1.01134053 25227
1 38703U 68081AD  16103.04464208 -.00000204  00000-0  00000+0 0  9999
2 38703   5.4246 304.2157 0259963 136.6586  75.1463  1.05422422 36833
1 38704U 68081AE  16109.53999520 -.00000347  00000-0  00000+0 0  9998
2 38704   4.2684 309.9387 0178237 275.9563  81.7191  1.02206172 38090
1 38705U 68081AF  16109.72031311 -.00000084  00000-0  00000+0 0  9993
2 38705   5.2220 312.3170 0256456  69.6535 292.8664  1.02050811 37224
1 38707U 12039A   16111.04942061  .00003684  00000-0  17628-3 0  9994
2 38707  97.4535  28.2843 0001875  86.9833  32.6813 15.19596930207780
1 38708U 12039B   16111.16314944  .00001215  00000-0  60263-4 0  9993
2 38708  97.4255  25.1188 0002055  91.7885  46.9000 15.19599839207743
1 38709U 12039C   16111.18244798  .00000040  00000-0  38072-4 0  9993
2 38709  99.0411  68.4258 0011593  30.2973 329.8875 14.23888280194638
1 38710U 12039D   16110.40197722  .00006746  00000-0  16438-3 0  9993
2 38710  97.4981  46.8390 0001163  24.4759 335.6543 15.41256509208884
1 38711U 12039E   16110.87203346  .00000067  00000-0  49395-4 0  9994
2 38711  99.0349  67.7050 0012328  33.5153 326.6803 14.24131540194600
1 38714U 99025ETF 16109.22225112 +.00005779 +00000-0 +14973-2 0  9996
2 38714 097.8582 106.6440 0235806 097.7141 265.0890 14.34801406119112
1 38716U 99025ETH 16103.97833118  .00000732  00000-0  81375-3 0  9990
2 38716  98.4480  15.7175 0277651 317.7982  40.1229 13.59004610326177
1 38717U 99025ETJ 16109.07474831  .00001263  00000-0  80555-3 0  9990
2 38717  98.9881  51.6844 0069782 127.4073 291.4637 14.04236306281197
1 38720U 99025ETM 16108.94074666 +.00003366 +00000-0 +16709-2 0  9996
2 38720 099.1045 142.3203 0063580 151.8607 208.6027 14.16779407146704
1 38721U 99025ETN 16109.89494971 +.00001315 +00000-0 +69417-3 0  9994
2 38721 098.9956 160.3359 0077797 351.0056 008.9718 14.14109519133503
1 38722U 99025ETP 16109.21207420  .00001854  00000-0  68887-3 0  9990
2 38722  99.3949 270.2119 0253477  75.0083 287.8997 14.17201829332362
1 38723U 99025ETQ 16110.96334551  .00001808  00000-0  74218-3 0  9995
2 38723  99.4601  13.7505 0045398 108.6558 251.9557 14.27902690266904
1 38724U 99025ETR 16108.32754316  .00001860  00000-0  14500-2 0  9993
2 38724  98.7645 250.7774 0167551  80.5557 281.4497 13.87087303238516
1 38725U 99025ETS 16109.38435782 +.00001294 +00000-0 +67622-3 0  9999
2 38725 098.9632 160.3952 0044778 315.6265 044.1323 14.15736752232553
1 38726U 99025ETT 16109.53981516  .00002184  00000-0  97293-3 0  9994
2 38726  99.1568 234.3135 0087931 299.5932  59.6504 14.21910472261395
1 38727U 99025ETU 16096.66287303  .00000832  00000-0  64277-3 0  9991
2 38727  98.6534 254.0184 0117563 303.3922 113.2105 13.92285958228831
1 38728U 99025ETV 16110.10108975  .00001115  00000-0  30304-3 0  9994
2 38728  99.2432  57.8415 0111713 122.2328 295.0786 14.46200247275486
1 38730U 12040A   16110.36579252  .00000108  00000-0  00000+0 0  9994
2 38730   0.0493 249.7570 0004617 189.7337 280.5612  1.00269092 13781
1 38732U 94089D   16111.22492170  .00000290  00000-0  15957-3 0  9991
2 38732  98.7530 198.1214 0014573 306.3330  53.6500 14.19039055193099
1 38733U 12041A   16111.15754544  .00000034  00000-0  17563-3 0  9999
2 38733  82.4751 228.0857 0017628 232.8488 127.0982 12.42366270169136
1 38734U 12041B   16111.06208389  .00000024  00000-0  10000-3 0  9999
2 38734  82.4760 227.3568 0018560 220.9951 138.9736 12.42890099169192
1 38735U 12041C   16111.09136600  .00000040  00000-0  21992-3 0  9999
2 38735  82.4767 227.9755 0016301 227.5536 132.4164 12.42572479169156
1 38736U 12041D   16111.08848668  .00000010  00000-0  00000+0 0  9993
2 38736  82.4811 227.9549 0020654 222.0693 137.8806 12.42868198169189
1 38737U 12041E   16109.86957088 +.00000012 +00000-0 +95870-5 0  9991
2 38737 082.4786 164.6005 0224488 318.9703 039.4697 12.81800250174317
1 38740U 12043A   16110.23261746 -.00000043  00000-0  00000+0 0  9999
2 38740   0.0154 261.3470 0000776 265.6668 192.9840  1.00272522 13622
1 38741U 12043B   16110.33641124  .00000137  00000-0  00000+0 0  9996
2 38741   0.0513  79.3421 0002141 306.3091 334.3556  1.00271043 13641
1 38742U 12043C   16109.46939892  .00001273  00000-0  42702-3 0  9992
2 38742   5.5163 245.8942 7200542 229.1513  42.0768  2.37473851 31554
1 38743U 12043D   16109.61988797  .00012549  00000-0  28412-2 0  9997
2 38743   5.9503  90.4127 6435296 172.0387 208.0086  3.40668964 37959
1 38744U 12044A   16111.09431835  .00110990  64287-5  17788-2 0  9995
2 38744  49.8957 332.5074 1640638  55.3872 319.0947 12.28807203150004
1 38745U 12044B   16110.84222471  .00017350  29546-5  50263-3 0  9993
2 38745  49.8972 345.3442 2335364 105.3119 281.5949 10.75756331141405
1 38746U 12044C   16111.22697073  .00008499  00000-0  55603-3 0  9997
2 38746  49.6759 107.9251 2457455  34.7275 339.1715 10.39055991138457
1 38747U 12044D   16111.21338658  .00110315  65146-5  14536-2 0  9995
2 38747  49.8471 189.5673 1415987 179.3347 180.9842 12.79921393153021
1 38749U 12045A   16109.42606339 -.00000305  00000-0  00000+0 0  9991
2 38749   0.0059 137.2125 0002535 249.5162 275.6169  1.00273224 13418
1 38750U 12045B   16109.16616304  .00000909  00000-0  73514-3 0  9990
2 38750   0.4622 356.1686 7201443 177.3230 207.3561  2.36072391 31166
1 38752U 12046A   16109.75849552 +.00000007 +00000-0 +41727-3 0  9991
2 38752 010.1839 027.7901 6807910 114.0604 328.3149 02.68107930035488
1 38753U 12046B   16109.60079008 +.00000019 +00000-0 +54004-3 0  9992
2 38753 010.1745 034.1904 6823814 101.6497 336.3152 02.65113667035263
1 38755U 12047A   16111.08815508  .00000107  00000-0  32741-4 0  9996
2 38755  98.1891 178.9901 0001083  91.2964 268.8363 14.58550193192261
1 38756U 12047B   16111.04072351  .00000384  00000-0  63357-4 0  9998
2 38756  98.2292 220.7931 0013086  39.1858 321.0274 14.76161522194412
1 38757U 12047C   16110.81631044  .00000232  00000-0  40035-4 0  9993
2 38757  98.0693 202.8877 0006843  56.4658 303.7205 14.77275479194542
1 38771U 12049A   16111.15877539  .00000036  00000-0  36263-4 0  9990
2 38771  98.6947 171.0382 0001427  55.0916  23.2822 14.21490465186171
1 38774U 12050A   16109.42094616 -.00000020 +00000-0 +00000-0 0  9999
2 38774 054.7290 187.9925 0034113 181.9672 178.0679 01.86251480008714
1 38775U 12050B   16110.63749007 -.00000001  00000-0  00000+0 0  9994
2 38775  54.8349 187.5872 0020501 224.5016 246.7223  1.86233059 24561
1 38778U 12051A   16110.09802068  .00000132  00000-0  00000+0 0  9999
2 38778   0.0577 238.4002 0001435 254.8727 137.8294  1.00273487 13078
1 38779U 12051B   16110.09456862 -.00000183  00000-0  00000+0 0  9994
2 38779   0.0767  93.7053 0001420 305.0469 285.9054  1.00273310 13078
1 38780U 12051C   16110.57857001  .00001621  00000-0  52439-3 0  9993
2 38780   6.3037 313.1211 7171137 207.6710  80.6584  2.41765142 30555
1 38781U 12051D   16109.75149703 +.00022437 +00000-0 +33799-2 0  9990
2 38781 006.3911 283.3671 5589672 262.6928 033.8529 04.68148058046213
1 38782U 12052A   16111.22357517  .00000330  00000-0  51754-4 0  9992
2 38782  97.9142 191.9662 0022789  36.5066 323.7699 14.78780237191939
1 38784U 99025ETY 16106.99193544  .00003008  00000-0  63881-3 0  9993
2 38784  99.4329 122.7631 0078638 212.7889 177.6666 14.58117637243268
1 38785U 99025ETZ 16106.51007502  .00002053  00000-0  12812-2 0  9996
2 38785  98.0360  17.1135 0225664  85.8121 276.8797 13.93848616326801
1 38786U 99025EUA 16110.55487723  .00003527  00000-0  35191-2 0  9995
2 38786  99.5939  25.3256 0290609 359.0201   1.0338 13.61599201255405
1 38789U 99025EUD 16108.48991961  .00000671  00000-0  19597-3 0  9991
2 38789  98.7658 204.8676 0246141 318.2747  97.4779 14.31560535293902
1 38790U 99025EUE 16109.90081197 +.00001225 +00000-0 +68588-3 0  9992
2 38790 099.0159 151.4368 0083761 040.6591 320.0793 14.10826048145570
1 38792U 99025EUG 16110.30982554  .00003395  00000-0  45439-3 0  9997
2 38792  99.6269 297.3757 0111485 354.9657   5.0417 14.76111562294175
1 38793U 99025EUH 16110.91732847  .00002062  00000-0  62517-3 0  9999
2 38793  98.7562 138.2645 0117820 101.2717  19.8269 14.39405212226710
1 38795U 99025EUK 16086.72506884  .00000343  00000-0  45223-3 0  9997
2 38795  98.7062 271.8066 0534000 314.7392  41.1412 13.19448904316216
1 38797U 99025EUM 16087.99648587  .00000048  00000-0  10202-3 0  9997
2 38797  99.5781  11.0636 0248258 230.3616 127.5381 13.59627767251538
1 38799U 99025EUP 16109.44502380  .00000816  00000-0  26702-3 0  9999
2 38799  98.7044 174.6995 0211535 351.4485  62.1317 14.29409042290352
